STARLINK-30825          
1 58384U 23178L   26068.23913829  .00000712  00000+0  36171-4 0  9999
2 58384  53.1614   3.0548 0001000  72.7100 287.4011 15.30189727129826
TEVEL2-4                
1 63213U 25052D   26068.69417973  .00020990  00000+0  70363-3 0  9998
2 63213  97.4009 325.1237 0004733  95.3468 264.8313 15.30925813 54879
